{
  "norad_id": 66202,
  "name": "STARLINK-35534",
  "history": [
    {
      "epoch": "2026-03-28T21:19:29.174304",
      "apogee_km": 476.01659535552426,
      "perigee_km": 474.37453687268317,
      "latitude_deg": -25.535194784781876,
      "longitude_deg": 165.4990825599525,
      "semi_major_axis_km": 6853.332566114103,
      "eccentricity": 0.0001198,
      "inclination_deg": 53.1591,
      "raan_deg": 156.0392,
      "arg_perigee_deg": 83.0829,
      "mean_anomaly_deg": 277.0308,
      "mean_motion_rev_day": 15.30206532
    }
  ]
}